0 FENGYUN 1C DEB
1 38794U 99025EUJ 14202.84165895  .00001134  00000-0  11306-2 0   871
2 38794 099.0602 061.9056 0221428 158.3676 202.6867 13.69673725189379
0 FENGYUN 1C DEB
1 38796U 99025EUL 14201.12882445  .00006673  00000-0  18068-2 0  1551
2 38796 098.8985 318.5170 0081748 254.1454 105.0280 14.46080877201981
0 FENGYUN 1C DEB
1 38797U 99025EUM 14201.61039740 -.00000066  00000-0 -24239-4 0   581
2 38797 099.5584 128.5488 0251844 354.0314 005.7416 13.59175486167798
0 FENGYUN 1C DEB
1 38799U 99025EUP 14190.93789014  .00001987  00000-0  64279-3 0   950
2 38799 098.7892 244.6645 0226348 084.9906 277.7830 14.26600388197787
0 FENGYUN 1C DEB
1 38801U 99025EUR 14189.80903177  .00001135  00000-0  31794-3 0  1161
2 38801 098.3483 041.8903 0396266 173.5349 187.1182 14.10448418228056
0 FENGYUN 1C DEB
1 38802U 99025EUS 14191.38992393  .00000287  00000-0  17156-3 0   461
2 38802 098.8986 247.3078 0037901 091.6447 268.9422 14.14463073270020
0 FENGYUN 1C DEB
1 38803U 99025EUT 14201.65422075  .00000527  00000-0  37492-3 0   540
2 38803 098.9836 139.9114 0085968 141.0970 219.6423 14.00084162269193
0 FENGYUN 1C DEB
1 38805U 99025EUV 14202.42610659  .00007719  00000-0  10220-2 0  2007
2 38805 099.0994 057.1083 0082171 191.4041 168.5307 14.77896773181110
0 FENGYUN 1C DEB
1 38806U 99025EUW 14200.75703920  .00001751  00000-0  12517-2 0  1433
2 38806 098.5476 023.5974 0143708 100.9056 260.7747 13.93559618192690
0 FENGYUN 1C DEB
1 38807U 99025EUX 14194.28039923  .00002415  00000-0  24822-2 0   674
2 38807 098.4527 218.7831 0240019 119.9007 229.2341 13.65105364186569
0 FENGYUN 1C DEB
1 38809U 99025EUZ 14198.89200352  .00000274  00000-0  13882-3 0  1399
2 38809 098.9736 233.1218 0243095 302.8010 181.0845 14.10144783172526
0 FENGYUN 1C DEB
1 38810U 99025EVA 14201.36634656  .00001305  00000-0  92363-3 0  1416
2 38810 099.3502 265.3493 0143701 287.5978 071.0073 13.94877308190338
0 FENGYUN 1C DEB
1 38811U 99025EVB 14202.20777700  .00003161  00000-0  18143-2 0  2268
2 38811 099.0777 190.7013 0060989 108.4472 252.2547 14.09144458191986
0 FENGYUN 1C DEB
1 38812U 99025EVC 14201.75154217  .00000935  00000-0  10528-2 0  1028
2 38812 098.4293 189.3258 0287853 181.0769 179.0358 13.56447389185221
0 FENGYUN 1C DEB
1 38813U 99025EVD 14201.16862564  .00000172  00000-0  11717-3 0  1323
2 38813 099.2564 324.1316 0005369 291.4839 190.0216 14.13223664193452
0 FENGYUN 1C DEB
1 38814U 99025EVE 14201.24754820  .00003460  00000-0  18594-2 0   947
2 38814 098.4409 002.6211 0133255 326.1127 033.1509 14.09083590246779
0 FENGYUN 1C DEB
1 38816U 99025EVG 14199.16759827  .00001579  00000-0  65843-3 0  1634
2 38816 098.8633 182.8449 0120325 336.4011 023.1674 14.23862424194117
0 FENGYUN 1C DEB
1 38818U 99025EVJ 14202.44497809  .00000277  00000-0  11500-3 0  1625
2 38818 098.6907 269.4528 0098516 201.4568 226.4456 14.31433010101966
0 FENGYUN 1C DEB
1 38819U 99025EVK 14202.31926520  .00000564  00000-0  31221-3 0   876
2 38819 098.9149 234.2927 0084867 220.2607 139.2692 14.13582787100708
0 FENGYUN 1C DEB
1 38820U 99025EVL 14199.74485576  .00003173  00000-0  25741-2 0  1263
2 38820 098.2407 187.1807 0297607 319.2416 038.6807 13.72073498 97521
0 FENGYUN 1C DEB
1 38822U 99025EVN 14201.27324369  .00001232  00000-0  97407-3 0   665
2 38822 098.1337 225.1343 0135547 123.8663 301.0173 13.88816705297112
0 FENGYUN 1C DEB
1 38824U 99025EVQ 14198.31813720  .00000909  00000-0  72840-3 0  1510
2 38824 099.3659 222.7567 0127294 032.7726 328.1248 13.89760717150970
0 FENGYUN 1C DEB
1 38825U 99025EVR 14193.42086257  .00000954  00000-0  87047-3 0   890
2 38825 098.9468 046.4470 0232023 091.8629 270.6731 13.73981333169041
0 FENGYUN 1C DEB
1 38826U 99025EVS 14197.11133963  .00002038  00000-0  10044-2 0   693
2 38826 099.8878 149.7562 0058850 278.9530 080.2481 14.17979425174398
0 FENGYUN 1C DEB
1 38827U 99025EVT 14202.36990792  .00001992  00000-0  73945-3 0  1205
2 38827 098.8665 250.3920 0241426 171.3422 189.2503 14.18467371185770
0 FENGYUN 1C DEB
1 38828U 99025EVU 14199.23019626  .00009261  00000-0  20649-2 0  1552
2 38828 099.5404 351.0444 0385754 138.8024 224.2958 14.19881976173682
0 FENGYUN 1C DEB
1 38829U 99025EVV 14198.28191779  .00000274  00000-0  20226-3 0   924
2 38829 099.1294 212.3654 0045948 144.3221 216.1031 14.03312538176048
0 FENGYUN 1C DEB
1 38831U 99025EVX 14174.71052322  .00000350  00000-0  25351-3 0   423
2 38831 099.1164 146.2479 0058638 200.3049 153.9599 14.02331978294066
0 FENGYUN 1C DEB
1 38832U 99025EVY 14200.62685588  .00001138  00000-0  85697-3 0  1885
2 38832 099.1260 149.9050 0098680 253.7892 105.2540 13.94127722152461
0 NAVSTAR 67 (USA 239)
1 38833U 12053A   14202.21749992 -.00000105  00000-0  00000+0 0  6700
2 38833 054.7985 322.1710 0020406 011.6616 348.3927 02.00558610 13124
0 DELTA 4 R/B
1 38834U 12053B   14202.66610900 -.00000113  00000-0  00000+0 0  2633
2 38834 054.4691 324.7142 0285119 049.5525 305.5987 01.89445062 12410
0 METEOR 2-6 DEB
1 38836U 80073N   14201.17846080  .00003334  00000-0  16859-2 0   667
2 38836 081.2175 015.9438 0040764 212.2578 147.5406 14.15552020 92319
0 METEOR 2-6 DEB
1 38837U 80073P   14201.76368205  .00001777  00000-0  80715-3 0  1709
2 38837 081.2193 006.8470 0041141 202.7854 219.4709 14.21035112127786
0 METEOR 2-6 DEB
1 38838U 80073Q   14187.40826096  .00004403  00000-0  13067-2 0  1109
2 38838 081.1917 225.8416 0016225 158.7206 201.6145 14.43094315595475
0 NOAA 8 DEB
1 38840U 83022M   14201.81585999  .00001087  00000-0  40297-3 0  2916
2 38840 098.4484 210.3825 0015280 039.6285 084.0712 14.34165538630430
0 NOAA 8 DEB
1 38841U 83022N   14202.28547634  .00002369  00000-0  75406-3 0  1781
2 38841 098.4445 215.3419 0014293 026.4662 037.1858 14.40706798148012
0 COSMOS 651 DEB
1 38843U 74029D   14202.51588688  .00000009  00000-0  73588-4 0   452
2 38843 064.9636 168.4006 0027924 024.0203 336.1942 13.95394189282037
0 COSMOS 1932 DEB
1 38845U 88019G   14198.30152706  .00000053  00000-0  13309-3 0   731
2 38845 065.0394 144.8042 0060302 263.3715 096.0546 13.79980738132683
0 GALILEO-FM3
1 38857U 12055A   14200.19283011  .00000053  00000-0  00000+0 0  2705
2 38857 055.0786 221.5860 0004813 236.8680 123.1328 01.70473820 10998
0 GALILEO-FM4
1 38858U 12055B   14200.12764136  .00000053  00000-0  00000+0 0  2598
2 38858 055.0793 221.5862 0003879 238.7437 121.2652 01.70473889 10984
0 FREGAT R/B
1 38859U 12055C   14197.34277534  .00000047  00000-0  00000+0 0  2299
2 38859 055.0926 222.5086 0009206 253.5013 106.4475 01.66706815 10708
0 SJ-9A
1 38860U 12056A   14202.78490728  .00000361  00000-0  55560-4 0   146
2 38860 097.9307 279.1864 0025874 057.3754 302.9931 14.79148933 95422
0 SJ-9B
1 38861U 12056B   14202.81476885  .00000508  00000-0  75355-4 0  9998
2 38861 097.9325 279.0340 0020642 058.9321 301.3866 14.79147199 95373
0 CZ-2C DEB
1 38863U 12056D   14202.14097271  .00000582  00000-0  81277-4 0  3439
2 38863 097.9390 279.7688 0017280 059.9789 300.3136 14.81296850 95340
0 CZ-2C DEB
1 38864U 12056E   14202.73586994  .00029047  00000-0  25318-3 0  6196
2 38864 098.1666 357.3438 0074282 044.0052 316.7085 15.65321372 99236
0 INTELSAT 23
1 38867U 12057A   14200.32217374 -.00000305  00000-0  00000+0 0  3917
2 38867 000.0074 004.4910 0001592 134.9209 220.5836 01.00272508  6498
0 BREEZE-M R/B
1 38868U 12057B   14201.66939104 -.00000196  00000-0  00000+0 0  3387
2 38868 001.3043 081.1614 0508134 320.2769 354.8027 00.88385840  5690
0 BREEZE-M DEB (TANK)
1 38869U 12057C   14202.45016814  .00002574  00000-0  12591-2 0  3753
2 38869 046.6975 347.1460 7325234 175.1600 201.4844 02.21385713 14037
0 BREEZE-M DEB
1 38880U 12044M   14201.62003664  .00039497  32458-5  94663-3 0  6620
2 38880 049.8546 353.0210 2109404 342.8498 011.0357 11.24501630 68360
0 BREEZE-M DEB
1 38881U 12044N   14202.06711508  .00033949  24953-5  56096-3 0  9036
2 38881 050.5042 065.1098 2229621 230.5230 107.6507 11.04007502 66967
0 BREEZE-M DEB
1 38884U 12044R   14201.73524544  .00004255  15058-5  13904-3 0  4663
2 38884 050.0303 080.5214 2483123 257.9689 073.4593 10.44907501 66287
0 BREEZE-M DEB
1 38886U 12044T   14201.73626312  .00018942  36001-5  41486-3 0  7300
2 38886 050.0513 339.0249 2012955 337.0323 015.1502 11.46267763 68757
0 BREEZE-M DEB
1 38888U 12044V   14202.46370105  .00007686  20169-5  20337-3 0  5658
2 38888 050.0800 026.7853 2310269 297.4568 041.0195 10.82453039 67687
0 BREEZE-M DEB
1 38890U 12044X   14201.65391405  .00046934  42920-5  89125-3 0  7196
2 38890 050.1039 309.1185 1898105 355.9624 002.7579 11.71912023 69474
0 BREEZE-M DEB
1 38894U 12044AB  14202.27301582  .00069444  56597-5  12130-2 0  5742
2 38894 049.7139 249.5480 1723362 074.8032 303.6201 12.10068832 70505
0 BREEZE-M DEB
1 38895U 12044AC  14201.59324569  .00077072  56538-5  15365-2 0  6999
2 38895 049.6593 262.9832 1748183 070.9937 307.1606 12.02930522 70220
0 BREEZE-M DEB
1 38898U 12044AF  14202.12621949  .00086540  61503-5  15512-2 0  8044
2 38898 049.9465 177.7897 1584513 119.4050 257.4279 12.39338391 72386
0 BREEZE-M DEB
1 38900U 12044AH  14202.66191774  .00704278  10676-3  27909-2 0  8866
2 38900 050.2439 359.4768 0455057 235.4542 120.2667 15.08372979 75869
0 BREEZE-M DEB
1 38901U 12044AJ  14201.92562112  .00208435  11678-4  21012-2 0  6486
2 38901 050.0458 047.0431 0950614 217.0072 136.1486 13.85430200 75049
0 BREEZE-M DEB
1 38902U 12044AK  14202.09530839  .00085839  60518-5  15135-2 0  7992
2 38902 049.7557 213.3953 1644959 107.1351 271.5667 12.26628665 71425
0 BREEZE-M DEB
1 38905U 12044AN  14202.11338454  .00050546  51855-5  10015-2 0  7057
2 38905 050.0339 237.2562 1814327 062.0715 315.1874 11.89116073 71139
0 BREEZE-M DEB
1 38906U 12044AP  14202.38789298  .00046302  48628-5  10191-2 0  6809
2 38906 049.9958 260.8966 1890905 047.5412 327.0508 11.71507728 70599
